{
  "type": "FeatureCollection",
  "generated_at_utc": "2026-09-08T00:48:00.226149+00:00",
  "crs": {
    "type": "name",
    "properties": {
      "name": "urn:ogc:def:crs:OGC:1.3:CRS84"
    }
  },
  "features": [
    {
      "type": "Feature",
      "id": "CELL-001",
      "geometry": {
        "type": "Polygon",
        "coordinates": [
          [
            [
              88.452,
              27.132
            ],
            [
              88.468,
              27.132
            ],
            [
              88.468,
              27.148
            ],
            [
              88.452,
              27.148
            ],
            [
              88.452,
              27.132
            ]
          ]
        ]
      },
      "properties": {
        "cell_id": "CORRIDOR-GRID-001",
        "latitude": 27.14,
        "longitude": 88.46,
        "elevation_m": 338.1,
        "slope_degrees": 12.7,
        "aspect_degrees": 307.9,
        "rainfall_24h_mm": 10.5,
        "rainfall_72h_mm": 35.8,
        "risk_probability": 0.421,
        "risk_level": "WATCH",
        "model_version": "HistGradientBoosting v1.0.0"
      }
    },
    {
      "type": "Feature",
      "id": "CELL-002",
      "geometry": {
        "type": "Polygon",
        "coordinates": [
          [
            [
              88.4691,
              27.132
            ],
            [
              88.4851,
              27.132
            ],
            [
              88.4851,
              27.148
            ],
            [
              88.4691,
              27.148
            ],
            [
              88.4691,
              27.132
            ]
          ]
        ]
      },
      "properties": {
        "cell_id": "CORRIDOR-GRID-002",
        "latitude": 27.14,
        "longitude": 88.4771,
        "elevation_m": 333.6,
        "slope_degrees": 5.0,
        "aspect_degrees": 305.7,
        "rainfall_24h_mm": 10.5,
        "rainfall_72h_mm": 35.5,
        "risk_probability": 0.223,
        "risk_level": "LOW",
        "model_version": "HistGradientBoosting v1.0.0"
      }
    },
    {
      "type": "Feature",
      "id": "CELL-003",
      "geometry": {
        "type": "Polygon",
        "coordinates": [
          [
            [
              88.4863,
              27.132
            ],
            [
              88.5023,
              27.132
            ],
            [
              88.5023,
              27.148
            ],
            [
              88.4863,
              27.148
            ],
            [
              88.4863,
              27.132
            ]
          ]
        ]
      },
      "properties": {
        "cell_id": "CORRIDOR-GRID-003",
        "latitude": 27.14,
        "longitude": 88.4943,
        "elevation_m": 327.6,
        "slope_degrees": 15.9,
        "aspect_degrees": 302.7,
        "rainfall_24h_mm": 10.5,
        "rainfall_72h_mm": 31.5,
        "risk_probability": 0.5,
        "risk_level": "HIGH",
        "model_version": "HistGradientBoosting v1.0.0"
      }
    },
    {
      "type": "Feature",
      "id": "CELL-004",
      "geometry": {
        "type": "Polygon",
        "coordinates": [
          [
            [
              88.5034,
              27.132
            ],
            [
              88.5194,
              27.132
            ],
            [
              88.5194,
              27.148
            ],
            [
              88.5034,
              27.148
            ],
            [
              88.5034,
              27.132
            ]
          ]
        ]
      },
      "properties": {
        "cell_id": "CORRIDOR-GRID-004",
        "latitude": 27.14,
        "longitude": 88.5114,
        "elevation_m": 321.0,
        "slope_degrees": 27.6,
        "aspect_degrees": 299.4,
        "rainfall_24h_mm": 10.5,
        "rainfall_72h_mm": 26.6,
        "risk_probability": 0.791,
        "risk_level": "CRITICAL",
        "model_version": "HistGradientBoosting v1.0.0"
      }
    },
    {
      "type": "Feature",
      "id": "CELL-005",
      "geometry": {
        "type": "Polygon",
        "coordinates": [
          [
            [
              88.5206,
              27.132
            ],
            [
              88.5366,
              27.132
            ],
            [
              88.5366,
              27.148
            ],
            [
              88.5206,
              27.148
            ],
            [
              88.5206,
              27.132
            ]
          ]
        ]
      },
      "properties": {
        "cell_id": "CORRIDOR-GRID-005",
        "latitude": 27.14,
        "longitude": 88.5286,
        "elevation_m": 316.3,
        "slope_degrees": 20.7,
        "aspect_degrees": 297.1,
        "rainfall_24h_mm": 10.5,
        "rainfall_72h_mm": 24.2,
        "risk_probability": 0.615,
        "risk_level": "HIGH",
        "model_version": "HistGradientBoosting v1.0.0"
      }
    },
    {
      "type": "Feature",
      "id": "CELL-006",
      "geometry": {
        "type": "Polygon",
        "coordinates": [
          [
            [
              88.5377,
              27.132
            ],
            [
              88.5537,
              27.132
            ],
            [
              88.5537,
              27.148
            ],
            [
              88.5377,
              27.148
            ],
            [
              88.5377,
              27.132
            ]
          ]
        ]
      },
      "properties": {
        "cell_id": "CORRIDOR-GRID-006",
        "latitude": 27.14,
        "longitude": 88.5457,
        "elevation_m": 316.0,
        "slope_degrees": 5.9,
        "aspect_degrees": 296.9,
        "rainfall_24h_mm": 10.5,
        "rainfall_72h_mm": 25.9,
        "risk_probability": 0.217,
        "risk_level": "LOW",
        "model_version": "HistGradientBoosting v1.0.0"
      }
    },
    {
      "type": "Feature",
      "id": "CELL-007",
      "geometry": {
        "type": "Polygon",
        "coordinates": [
          [
            [
              88.5549,
              27.132
            ],
            [
              88.5709,
              27.132
            ],
            [
              88.5709,
              27.148
            ],
            [
              88.5549,
              27.148
            ],
            [
              88.5549,
              27.132
            ]
          ]
        ]
      },
      "properties": {
        "cell_id": "CORRIDOR-GRID-007",
        "latitude": 27.14,
        "longitude": 88.5629,
        "elevation_m": 319.1,
        "slope_degrees": 6.9,
        "aspect_degrees": 298.5,
        "rainfall_24h_mm": 10.5,
        "rainfall_72h_mm": 30.6,
        "risk_probability": 0.251,
        "risk_level": "WATCH",
        "model_version": "HistGradientBoosting v1.0.0"
      }
    },
    {
      "type": "Feature",
      "id": "CELL-008",
      "geometry": {
        "type": "Polygon",
        "coordinates": [
          [
            [
              88.572,
              27.132
            ],
            [
              88.588,
              27.132
            ],
            [
              88.588,
              27.148
            ],
            [
              88.572,
              27.148
            ],
            [
              88.572,
              27.132
            ]
          ]
        ]
      },
      "properties": {
        "cell_id": "CORRIDOR-GRID-008",
        "latitude": 27.14,
        "longitude": 88.58,
        "elevation_m": 323.1,
        "slope_degrees": 22.2,
        "aspect_degrees": 300.4,
        "rainfall_24h_mm": 10.5,
        "rainfall_72h_mm": 35.0,
        "risk_probability": 0.692,
        "risk_level": "HIGH",
        "model_version": "HistGradientBoosting v1.0.0"
      }
    },
    {
      "type": "Feature",
      "id": "CELL-009",
      "geometry": {
        "type": "Polygon",
        "coordinates": [
          [
            [
              88.452,
              27.1506
            ],
            [
              88.468,
              27.1506
            ],
            [
              88.468,
              27.1666
            ],
            [
              88.452,
              27.1666
            ],
            [
              88.452,
              27.1506
            ]
          ]
        ]
      },
      "properties": {
        "cell_id": "CORRIDOR-GRID-009",
        "latitude": 27.1586,
        "longitude": 88.46,
        "elevation_m": 447.5,
        "slope_degrees": 12.9,
        "aspect_degrees": 309.5,
        "rainfall_24h_mm": 12.3,
        "rainfall_72h_mm": 35.8,
        "risk_probability": 0.444,
        "risk_level": "WATCH",
        "model_version": "HistGradientBoosting v1.0.0"
      }
    },
    {
      "type": "Feature",
      "id": "CELL-010",
      "geometry": {
        "type": "Polygon",
        "coordinates": [
          [
            [
              88.4691,
              27.1506
            ],
            [
              88.4851,
              27.1506
            ],
            [
              88.4851,
              27.1666
            ],
            [
              88.4691,
              27.1666
            ],
            [
              88.4691,
              27.1506
            ]
          ]
        ]
      },
      "properties": {
        "cell_id": "CORRIDOR-GRID-010",
        "latitude": 27.1586,
        "longitude": 88.4771,
        "elevation_m": 442.2,
        "slope_degrees": 5.0,
        "aspect_degrees": 306.8,
        "rainfall_24h_mm": 12.3,
        "rainfall_72h_mm": 35.5,
        "risk_probability": 0.236,
        "risk_level": "LOW",
        "model_version": "HistGradientBoosting v1.0.0"
      }
    },
    {
      "type": "Feature",
      "id": "CELL-011",
      "geometry": {
        "type": "Polygon",
        "coordinates": [
          [
            [
              88.4863,
              27.1506
            ],
            [
              88.5023,
              27.1506
            ],
            [
              88.5023,
              27.1666
            ],
            [
              88.4863,
              27.1666
            ],
            [
              88.4863,
              27.1506
            ]
          ]
        ]
      },
      "properties": {
        "cell_id": "CORRIDOR-GRID-011",
        "latitude": 27.1586,
        "longitude": 88.4943,
        "elevation_m": 433.8,
        "slope_degrees": 15.9,
        "aspect_degrees": 302.6,
        "rainfall_24h_mm": 12.3,
        "rainfall_72h_mm": 31.5,
        "risk_probability": 0.518,
        "risk_level": "HIGH",
        "model_version": "HistGradientBoosting v1.0.0"
      }
    },
    {
      "type": "Feature",
      "id": "CELL-012",
      "geometry": {
        "type": "Polygon",
        "coordinates": [
          [
            [
              88.5034,
              27.1506
            ],
            [
              88.5194,
              27.1506
            ],
            [
              88.5194,
              27.1666
            ],
            [
              88.5034,
              27.1666
            ],
            [
              88.5034,
              27.1506
            ]
          ]
        ]
      },
      "properties": {
        "cell_id": "CORRIDOR-GRID-012",
        "latitude": 27.1586,
        "longitude": 88.5114,
        "elevation_m": 422.1,
        "slope_degrees": 27.3,
        "aspect_degrees": 296.8,
        "rainfall_24h_mm": 12.3,
        "rainfall_72h_mm": 26.6,
        "risk_probability": 0.797,
        "risk_level": "CRITICAL",
        "model_version": "HistGradientBoosting v1.0.0"
      }
    },
    {
      "type": "Feature",
      "id": "CELL-013",
      "geometry": {
        "type": "Polygon",
        "coordinates": [
          [
            [
              88.5206,
              27.1506
            ],
            [
              88.5366,
              27.1506
            ],
            [
              88.5366,
              27.1666
            ],
            [
              88.5206,
              27.1666
            ],
            [
              88.5206,
              27.1506
            ]
          ]
        ]
      },
      "properties": {
        "cell_id": "CORRIDOR-GRID-013",
        "latitude": 27.1586,
        "longitude": 88.5286,
        "elevation_m": 411.6,
        "slope_degrees": 20.0,
        "aspect_degrees": 291.6,
        "rainfall_24h_mm": 12.3,
        "rainfall_72h_mm": 24.2,
        "risk_probability": 0.612,
        "risk_level": "HIGH",
        "model_version": "HistGradientBoosting v1.0.0"
      }
    },
    {
      "type": "Feature",
      "id": "CELL-014",
      "geometry": {
        "type": "Polygon",
        "coordinates": [
          [
            [
              88.5377,
              27.1506
            ],
            [
              88.5537,
              27.1506
            ],
            [
              88.5537,
              27.1666
            ],
            [
              88.5377,
              27.1666
            ],
            [
              88.5377,
              27.1506
            ]
          ]
        ]
      },
      "properties": {
        "cell_id": "CORRIDOR-GRID-014",
        "latitude": 27.1586,
        "longitude": 88.5457,
        "elevation_m": 413.2,
        "slope_degrees": 5.4,
        "aspect_degrees": 292.4,
        "rainfall_24h_mm": 12.3,
        "rainfall_72h_mm": 25.9,
        "risk_probability": 0.219,
        "risk_level": "LOW",
        "model_version": "HistGradientBoosting v1.0.0"
      }
    },
    {
      "type": "Feature",
      "id": "CELL-015",
      "geometry": {
        "type": "Polygon",
        "coordinates": [
          [
            [
              88.5549,
              27.1506
            ],
            [
              88.5709,
              27.1506
            ],
            [
              88.5709,
              27.1666
            ],
            [
              88.5549,
              27.1666
            ],
            [
              88.5549,
              27.1506
            ]
          ]
        ]
      },
      "properties": {
        "cell_id": "CORRIDOR-GRID-015",
        "latitude": 27.1586,
        "longitude": 88.5629,
        "elevation_m": 421.2,
        "slope_degrees": 6.6,
        "aspect_degrees": 296.4,
        "rainfall_24h_mm": 12.3,
        "rainfall_72h_mm": 30.6,
        "risk_probability": 0.258,
        "risk_level": "WATCH",
        "model_version": "HistGradientBoosting v1.0.0"
      }
    },
    {
      "type": "Feature",
      "id": "CELL-016",
      "geometry": {
        "type": "Polygon",
        "coordinates": [
          [
            [
              88.572,
              27.1506
            ],
            [
              88.588,
              27.1506
            ],
            [
              88.588,
              27.1666
            ],
            [
              88.572,
              27.1666
            ],
            [
              88.572,
              27.1506
            ]
          ]
        ]
      },
      "properties": {
        "cell_id": "CORRIDOR-GRID-016",
        "latitude": 27.1586,
        "longitude": 88.58,
        "elevation_m": 427.9,
        "slope_degrees": 22.1,
        "aspect_degrees": 299.7,
        "rainfall_24h_mm": 12.3,
        "rainfall_72h_mm": 35.0,
        "risk_probability": 0.705,
        "risk_level": "HIGH",
        "model_version": "HistGradientBoosting v1.0.0"
      }
    },
    {
      "type": "Feature",
      "id": "CELL-017",
      "geometry": {
        "type": "Polygon",
        "coordinates": [
          [
            [
              88.452,
              27.1691
            ],
            [
              88.468,
              27.1691
            ],
            [
              88.468,
              27.1851
            ],
            [
              88.452,
              27.1851
            ],
            [
              88.452,
              27.1691
            ]
          ]
        ]
      },
      "properties": {
        "cell_id": "CORRIDOR-GRID-017",
        "latitude": 27.1771,
        "longitude": 88.46,
        "elevation_m": 354.4,
        "slope_degrees": 13.3,
        "aspect_degrees": 312.2,
        "rainfall_24h_mm": 13.0,
        "rainfall_72h_mm": 35.8,
        "risk_probability": 0.463,
        "risk_level": "WATCH",
        "model_version": "HistGradientBoosting v1.0.0"
      }
    },
    {
      "type": "Feature",
      "id": "CELL-018",
      "geometry": {
        "type": "Polygon",
        "coordinates": [
          [
            [
              88.4691,
              27.1691
            ],
            [
              88.4851,
              27.1691
            ],
            [
              88.4851,
              27.1851
            ],
            [
              88.4691,
              27.1851
            ],
            [
              88.4691,
              27.1691
            ]
          ]
        ]
      },
      "properties": {
        "cell_id": "CORRIDOR-GRID-018",
        "latitude": 27.1771,
        "longitude": 88.4771,
        "elevation_m": 349.9,
        "slope_degrees": 5.4,
        "aspect_degrees": 310.0,
        "rainfall_24h_mm": 13.0,
        "rainfall_72h_mm": 35.5,
        "risk_probability": 0.25,
        "risk_level": "LOW",
        "model_version": "HistGradientBoosting v1.0.0"
      }
    },
    {
      "type": "Feature",
      "id": "CELL-019",
      "geometry": {
        "type": "Polygon",
        "coordinates": [
          [
            [
              88.4863,
              27.1691
            ],
            [
              88.5023,
              27.1691
            ],
            [
              88.5023,
              27.1851
            ],
            [
              88.4863,
              27.1851
            ],
            [
              88.4863,
              27.1691
            ]
          ]
        ]
      },
      "properties": {
        "cell_id": "CORRIDOR-GRID-019",
        "latitude": 27.1771,
        "longitude": 88.4943,
        "elevation_m": 340.5,
        "slope_degrees": 16.2,
        "aspect_degrees": 305.3,
        "rainfall_24h_mm": 13.0,
        "rainfall_72h_mm": 31.5,
        "risk_probability": 0.534,
        "risk_level": "HIGH",
        "model_version": "HistGradientBoosting v1.0.0"
      }
    },
    {
      "type": "Feature",
      "id": "CELL-020",
      "geometry": {
        "type": "Polygon",
        "coordinates": [
          [
            [
              88.5034,
              27.1691
            ],
            [
              88.5194,
              27.1691
            ],
            [
              88.5194,
              27.1851
            ],
            [
              88.5034,
              27.1851
            ],
            [
              88.5034,
              27.1691
            ]
          ]
        ]
      },
      "properties": {
        "cell_id": "CORRIDOR-GRID-020",
        "latitude": 27.1771,
        "longitude": 88.5114,
        "elevation_m": 323.5,
        "slope_degrees": 27.3,
        "aspect_degrees": 296.8,
        "rainfall_24h_mm": 13.0,
        "rainfall_72h_mm": 26.6,
        "risk_probability": 0.801,
        "risk_level": "CRITICAL",
        "model_version": "HistGradientBoosting v1.0.0"
      }
    },
    {
      "type": "Feature",
      "id": "CELL-021",
      "geometry": {
        "type": "Polygon",
        "coordinates": [
          [
            [
              88.5206,
              27.1691
            ],
            [
              88.5366,
              27.1691
            ],
            [
              88.5366,
              27.1851
            ],
            [
              88.5206,
              27.1851
            ],
            [
              88.5206,
              27.1691
            ]
          ]
        ]
      },
      "properties": {
        "cell_id": "CORRIDOR-GRID-021",
        "latitude": 27.1771,
        "longitude": 88.5286,
        "elevation_m": 296.7,
        "slope_degrees": 19.0,
        "aspect_degrees": 283.5,
        "rainfall_24h_mm": 13.0,
        "rainfall_72h_mm": 24.2,
        "risk_probability": 0.59,
        "risk_level": "HIGH",
        "model_version": "HistGradientBoosting v1.0.0"
      }
    },
    {
      "type": "Feature",
      "id": "CELL-022",
      "geometry": {
        "type": "Polygon",
        "coordinates": [
          [
            [
              88.5377,
              27.1691
            ],
            [
              88.5537,
              27.1691
            ],
            [
              88.5537,
              27.1851
            ],
            [
              88.5377,
              27.1851
            ],
            [
              88.5377,
              27.1691
            ]
          ]
        ]
      },
      "properties": {
        "cell_id": "CORRIDOR-GRID-022",
        "latitude": 27.1771,
        "longitude": 88.5457,
        "elevation_m": 307.6,
        "slope_degrees": 5.0,
        "aspect_degrees": 288.9,
        "rainfall_24h_mm": 13.0,
        "rainfall_72h_mm": 25.9,
        "risk_probability": 0.216,
        "risk_level": "LOW",
        "model_version": "HistGradientBoosting v1.0.0"
      }
    },
    {
      "type": "Feature",
      "id": "CELL-023",
      "geometry": {
        "type": "Polygon",
        "coordinates": [
          [
            [
              88.5549,
              27.1691
            ],
            [
              88.5709,
              27.1691
            ],
            [
              88.5709,
              27.1851
            ],
            [
              88.5549,
              27.1851
            ],
            [
              88.5549,
              27.1691
            ]
          ]
        ]
      },
      "properties": {
        "cell_id": "CORRIDOR-GRID-023",
        "latitude": 27.1771,
        "longitude": 88.5629,
        "elevation_m": 322.2,
        "slope_degrees": 6.6,
        "aspect_degrees": 296.2,
        "rainfall_24h_mm": 13.0,
        "rainfall_72h_mm": 30.6,
        "risk_probability": 0.263,
        "risk_level": "WATCH",
        "model_version": "HistGradientBoosting v1.0.0"
      }
    },
    {
      "type": "Feature",
      "id": "CELL-024",
      "geometry": {
        "type": "Polygon",
        "coordinates": [
          [
            [
              88.572,
              27.1691
            ],
            [
              88.588,
              27.1691
            ],
            [
              88.588,
              27.1851
            ],
            [
              88.572,
              27.1851
            ],
            [
              88.572,
              27.1691
            ]
          ]
        ]
      },
      "properties": {
        "cell_id": "CORRIDOR-GRID-024",
        "latitude": 27.1771,
        "longitude": 88.58,
        "elevation_m": 330.4,
        "slope_degrees": 22.2,
        "aspect_degrees": 300.3,
        "rainfall_24h_mm": 13.0,
        "rainfall_72h_mm": 35.0,
        "risk_probability": 0.713,
        "risk_level": "HIGH",
        "model_version": "HistGradientBoosting v1.0.0"
      }
    },
    {
      "type": "Feature",
      "id": "CELL-025",
      "geometry": {
        "type": "Polygon",
        "coordinates": [
          [
            [
              88.452,
              27.1877
            ],
            [
              88.468,
              27.1877
            ],
            [
              88.468,
              27.2037
            ],
            [
              88.452,
              27.2037
            ],
            [
              88.452,
              27.1877
            ]
          ]
        ]
      },
      "properties": {
        "cell_id": "CORRIDOR-GRID-025",
        "latitude": 27.1957,
        "longitude": 88.46,
        "elevation_m": 312.0,
        "slope_degrees": 13.8,
        "aspect_degrees": 316.3,
        "rainfall_24h_mm": 11.9,
        "rainfall_72h_mm": 35.8,
        "risk_probability": 0.467,
        "risk_level": "WATCH",
        "model_version": "HistGradientBoosting v1.0.0"
      }
    },
    {
      "type": "Feature",
      "id": "CELL-026",
      "geometry": {
        "type": "Polygon",
        "coordinates": [
          [
            [
              88.4691,
              27.1877
            ],
            [
              88.4851,
              27.1877
            ],
            [
              88.4851,
              27.2037
            ],
            [
              88.4691,
              27.2037
            ],
            [
              88.4691,
              27.1877
            ]
          ]
        ]
      },
      "properties": {
        "cell_id": "CORRIDOR-GRID-026",
        "latitude": 27.1957,
        "longitude": 88.4771,
        "elevation_m": 311.1,
        "slope_degrees": 6.1,
        "aspect_degrees": 315.9,
        "rainfall_24h_mm": 11.9,
        "rainfall_72h_mm": 35.5,
        "risk_probability": 0.257,
        "risk_level": "WATCH",
        "model_version": "HistGradientBoosting v1.0.0"
      }
    },
    {
      "type": "Feature",
      "id": "CELL-027",
      "geometry": {
        "type": "Polygon",
        "coordinates": [
          [
            [
              88.4863,
              27.1877
            ],
            [
              88.5023,
              27.1877
            ],
            [
              88.5023,
              27.2037
            ],
            [
              88.4863,
              27.2037
            ],
            [
              88.4863,
              27.1877
            ]
          ]
        ]
      },
      "properties": {
        "cell_id": "CORRIDOR-GRID-027",
        "latitude": 27.1957,
        "longitude": 88.4943,
        "elevation_m": 305.8,
        "slope_degrees": 17.2,
        "aspect_degrees": 313.2,
        "rainfall_24h_mm": 11.9,
        "rainfall_72h_mm": 31.5,
        "risk_probability": 0.553,
        "risk_level": "HIGH",
        "model_version": "HistGradientBoosting v1.0.0"
      }
    },
    {
      "type": "Feature",
      "id": "CELL-028",
      "geometry": {
        "type": "Polygon",
        "coordinates": [
          [
            [
              88.5034,
              27.1877
            ],
            [
              88.5194,
              27.1877
            ],
            [
              88.5194,
              27.2037
            ],
            [
              88.5034,
              27.2037
            ],
            [
              88.5034,
              27.1877
            ]
          ]
        ]
      },
      "properties": {
        "cell_id": "CORRIDOR-GRID-028",
        "latitude": 27.1957,
        "longitude": 88.5114,
        "elevation_m": 291.9,
        "slope_degrees": 28.5,
        "aspect_degrees": 306.3,
        "rainfall_24h_mm": 11.9,
        "rainfall_72h_mm": 26.6,
        "risk_probability": 0.817,
        "risk_level": "CRITICAL",
        "model_version": "HistGradientBoosting v1.0.0"
      }
    },
    {
      "type": "Feature",
      "id": "CELL-029",
      "geometry": {
        "type": "Polygon",
        "coordinates": [
          [
            [
              88.5206,
              27.1877
            ],
            [
              88.5366,
              27.1877
            ],
            [
              88.5366,
              27.2037
            ],
            [
              88.5206,
              27.2037
            ],
            [
              88.5206,
              27.1877
            ]
          ]
        ]
      },
      "properties": {
        "cell_id": "CORRIDOR-GRID-029",
        "latitude": 27.1957,
        "longitude": 88.5286,
        "elevation_m": 275.2,
        "slope_degrees": 20.8,
        "aspect_degrees": 298.0,
        "rainfall_24h_mm": 11.9,
        "rainfall_72h_mm": 24.2,
        "risk_probability": 0.631,
        "risk_level": "HIGH",
        "model_version": "HistGradientBoosting v1.0.0"
      }
    },
    {
      "type": "Feature",
      "id": "CELL-030",
      "geometry": {
        "type": "Polygon",
        "coordinates": [
          [
            [
              88.5377,
              27.1877
            ],
            [
              88.5537,
              27.1877
            ],
            [
              88.5537,
              27.2037
            ],
            [
              88.5377,
              27.2037
            ],
            [
              88.5377,
              27.1877
            ]
          ]
        ]
      },
      "properties": {
        "cell_id": "CORRIDOR-GRID-030",
        "latitude": 27.1957,
        "longitude": 88.5457,
        "elevation_m": 273.7,
        "slope_degrees": 6.0,
        "aspect_degrees": 297.2,
        "rainfall_24h_mm": 11.9,
        "rainfall_72h_mm": 25.9,
        "risk_probability": 0.229,
        "risk_level": "LOW",
        "model_version": "HistGradientBoosting v1.0.0"
      }
    },
    {
      "type": "Feature",
      "id": "CELL-031",
      "geometry": {
        "type": "Polygon",
        "coordinates": [
          [
            [
              88.5549,
              27.1877
            ],
            [
              88.5709,
              27.1877
            ],
            [
              88.5709,
              27.2037
            ],
            [
              88.5549,
              27.2037
            ],
            [
              88.5549,
              27.1877
            ]
          ]
        ]
      },
      "properties": {
        "cell_id": "CORRIDOR-GRID-031",
        "latitude": 27.1957,
        "longitude": 88.5629,
        "elevation_m": 280.0,
        "slope_degrees": 7.2,
        "aspect_degrees": 300.4,
        "rainfall_24h_mm": 11.9,
        "rainfall_72h_mm": 30.6,
        "risk_probability": 0.269,
        "risk_level": "WATCH",
        "model_version": "HistGradientBoosting v1.0.0"
      }
    },
    {
      "type": "Feature",
      "id": "CELL-032",
      "geometry": {
        "type": "Polygon",
        "coordinates": [
          [
            [
              88.572,
              27.1877
            ],
            [
              88.588,
              27.1877
            ],
            [
              88.588,
              27.2037
            ],
            [
              88.572,
              27.2037
            ],
            [
              88.572,
              27.1877
            ]
          ]
        ]
      },
      "properties": {
        "cell_id": "CORRIDOR-GRID-032",
        "latitude": 27.1957,
        "longitude": 88.58,
        "elevation_m": 285.1,
        "slope_degrees": 22.5,
        "aspect_degrees": 302.9,
        "rainfall_24h_mm": 11.9,
        "rainfall_72h_mm": 35.0,
        "risk_probability": 0.711,
        "risk_level": "HIGH",
        "model_version": "HistGradientBoosting v1.0.0"
      }
    },
    {
      "type": "Feature",
      "id": "CELL-033",
      "geometry": {
        "type": "Polygon",
        "coordinates": [
          [
            [
              88.452,
              27.2063
            ],
            [
              88.468,
              27.2063
            ],
            [
              88.468,
              27.2223
            ],
            [
              88.452,
              27.2223
            ],
            [
              88.452,
              27.2063
            ]
          ]
        ]
      },
      "properties": {
        "cell_id": "CORRIDOR-GRID-033",
        "latitude": 27.2143,
        "longitude": 88.46,
        "elevation_m": 448.3,
        "slope_degrees": 14.4,
        "aspect_degrees": 320.8,
        "rainfall_24h_mm": 10.0,
        "rainfall_72h_mm": 35.8,
        "risk_probability": 0.466,
        "risk_level": "WATCH",
        "model_version": "HistGradientBoosting v1.0.0"
      }
    },
    {
      "type": "Feature",
      "id": "CELL-034",
      "geometry": {
        "type": "Polygon",
        "coordinates": [
          [
            [
              88.4691,
              27.2063
            ],
            [
              88.4851,
              27.2063
            ],
            [
              88.4851,
              27.2223
            ],
            [
              88.4691,
              27.2223
            ],
            [
              88.4691,
              27.2063
            ]
          ]
        ]
      },
      "properties": {
        "cell_id": "CORRIDOR-GRID-034",
        "latitude": 27.2143,
        "longitude": 88.4771,
        "elevation_m": 453.7,
        "slope_degrees": 7.1,
        "aspect_degrees": 323.5,
        "rainfall_24h_mm": 10.0,
        "rainfall_72h_mm": 35.5,
        "risk_probability": 0.266,
        "risk_level": "WATCH",
        "model_version": "HistGradientBoosting v1.0.0"
      }
    },
    {
      "type": "Feature",
      "id": "CELL-035",
      "geometry": {
        "type": "Polygon",
        "coordinates": [
          [
            [
              88.4863,
              27.2063
            ],
            [
              88.5023,
              27.2063
            ],
            [
              88.5023,
              27.2223
            ],
            [
              88.4863,
              27.2223
            ],
            [
              88.4863,
              27.2063
            ]
          ]
        ]
      },
      "properties": {
        "cell_id": "CORRIDOR-GRID-035",
        "latitude": 27.2143,
        "longitude": 88.4943,
        "elevation_m": 458.4,
        "slope_degrees": 18.8,
        "aspect_degrees": 325.8,
        "rainfall_24h_mm": 10.0,
        "rainfall_72h_mm": 31.5,
        "risk_probability": 0.581,
        "risk_level": "HIGH",
        "model_version": "HistGradientBoosting v1.0.0"
      }
    },
    {
      "type": "Feature",
      "id": "CELL-036",
      "geometry": {
        "type": "Polygon",
        "coordinates": [
          [
            [
              88.5034,
              27.2063
            ],
            [
              88.5194,
              27.2063
            ],
            [
              88.5194,
              27.2223
            ],
            [
              88.5034,
              27.2223
            ],
            [
              88.5034,
              27.2063
            ]
          ]
        ]
      },
      "properties": {
        "cell_id": "CORRIDOR-GRID-036",
        "latitude": 27.2143,
        "longitude": 88.5114,
        "elevation_m": 450.3,
        "slope_degrees": 30.4,
        "aspect_degrees": 321.8,
        "rainfall_24h_mm": 10.0,
        "rainfall_72h_mm": 26.6,
        "risk_probability": 0.838,
        "risk_level": "CRITICAL",
        "model_version": "HistGradientBoosting v1.0.0"
      }
    },
    {
      "type": "Feature",
      "id": "CELL-037",
      "geometry": {
        "type": "Polygon",
        "coordinates": [
          [
            [
              88.5206,
              27.2063
            ],
            [
              88.5366,
              27.2063
            ],
            [
              88.5366,
              27.2223
            ],
            [
              88.5206,
              27.2223
            ],
            [
              88.5206,
              27.2063
            ]
          ]
        ]
      },
      "properties": {
        "cell_id": "CORRIDOR-GRID-037",
        "latitude": 27.2143,
        "longitude": 88.5286,
        "elevation_m": 433.0,
        "slope_degrees": 22.7,
        "aspect_degrees": 313.2,
        "rainfall_24h_mm": 10.0,
        "rainfall_72h_mm": 24.2,
        "risk_probability": 0.665,
        "risk_level": "HIGH",
        "model_version": "HistGradientBoosting v1.0.0"
      }
    },
    {
      "type": "Feature",
      "id": "CELL-038",
      "geometry": {
        "type": "Polygon",
        "coordinates": [
          [
            [
              88.5377,
              27.2063
            ],
            [
              88.5537,
              27.2063
            ],
            [
              88.5537,
              27.2223
            ],
            [
              88.5377,
              27.2223
            ],
            [
              88.5377,
              27.2063
            ]
          ]
        ]
      },
      "properties": {
        "cell_id": "CORRIDOR-GRID-038",
        "latitude": 27.2143,
        "longitude": 88.5457,
        "elevation_m": 422.8,
        "slope_degrees": 7.3,
        "aspect_degrees": 308.1,
        "rainfall_24h_mm": 10.0,
        "rainfall_72h_mm": 25.9,
        "risk_probability": 0.243,
        "risk_level": "LOW",
        "model_version": "HistGradientBoosting v1.0.0"
      }
    },
    {
      "type": "Feature",
      "id": "CELL-039",
      "geometry": {
        "type": "Polygon",
        "coordinates": [
          [
            [
              88.5549,
              27.2063
            ],
            [
              88.5709,
              27.2063
            ],
            [
              88.5709,
              27.2223
            ],
            [
              88.5549,
              27.2223
            ],
            [
              88.5549,
              27.2063
            ]
          ]
        ]
      },
      "properties": {
        "cell_id": "CORRIDOR-GRID-039",
        "latitude": 27.2143,
        "longitude": 88.5629,
        "elevation_m": 419.8,
        "slope_degrees": 7.9,
        "aspect_degrees": 306.7,
        "rainfall_24h_mm": 10.0,
        "rainfall_72h_mm": 30.6,
        "risk_probability": 0.27,
        "risk_level": "WATCH",
        "model_version": "HistGradientBoosting v1.0.0"
      }
    },
    {
      "type": "Feature",
      "id": "CELL-040",
      "geometry": {
        "type": "Polygon",
        "coordinates": [
          [
            [
              88.572,
              27.2063
            ],
            [
              88.588,
              27.2063
            ],
            [
              88.588,
              27.2223
            ],
            [
              88.572,
              27.2223
            ],
            [
              88.572,
              27.2063
            ]
          ]
        ]
      },
      "properties": {
        "cell_id": "CORRIDOR-GRID-040",
        "latitude": 27.2143,
        "longitude": 88.58,
        "elevation_m": 419.9,
        "slope_degrees": 23.0,
        "aspect_degrees": 306.7,
        "rainfall_24h_mm": 10.0,
        "rainfall_72h_mm": 35.0,
        "risk_probability": 0.708,
        "risk_level": "HIGH",
        "model_version": "HistGradientBoosting v1.0.0"
      }
    },
    {
      "type": "Feature",
      "id": "CELL-041",
      "geometry": {
        "type": "Polygon",
        "coordinates": [
          [
            [
              88.452,
              27.2249
            ],
            [
              88.468,
              27.2249
            ],
            [
              88.468,
              27.2409
            ],
            [
              88.452,
              27.2409
            ],
            [
              88.452,
              27.2249
            ]
          ]
        ]
      },
      "properties": {
        "cell_id": "CORRIDOR-GRID-041",
        "latitude": 27.2329,
        "longitude": 88.46,
        "elevation_m": 433.2,
        "slope_degrees": 14.8,
        "aspect_degrees": 323.9,
        "rainfall_24h_mm": 8.7,
        "rainfall_72h_mm": 35.8,
        "risk_probability": 0.465,
        "risk_level": "WATCH",
        "model_version": "HistGradientBoosting v1.0.0"
      }
    },
    {
      "type": "Feature",
      "id": "CELL-042",
      "geometry": {
        "type": "Polygon",
        "coordinates": [
          [
            [
              88.4691,
              27.2249
            ],
            [
              88.4851,
              27.2249
            ],
            [
              88.4851,
              27.2409
            ],
            [
              88.4691,
              27.2409
            ],
            [
              88.4691,
              27.2249
            ]
          ]
        ]
      },
      "properties": {
        "cell_id": "CORRIDOR-GRID-042",
        "latitude": 27.2329,
        "longitude": 88.4771,
        "elevation_m": 443.2,
        "slope_degrees": 7.8,
        "aspect_degrees": 328.9,
        "rainfall_24h_mm": 8.7,
        "rainfall_72h_mm": 35.5,
        "risk_probability": 0.272,
        "risk_level": "WATCH",
        "model_version": "HistGradientBoosting v1.0.0"
      }
    },
    {
      "type": "Feature",
      "id": "CELL-043",
      "geometry": {
        "type": "Polygon",
        "coordinates": [
          [
            [
              88.4863,
              27.2249
            ],
            [
              88.5023,
              27.2249
            ],
            [
              88.5023,
              27.2409
            ],
            [
              88.4863,
              27.2409
            ],
            [
              88.4863,
              27.2249
            ]
          ]
        ]
      },
      "properties": {
        "cell_id": "CORRIDOR-GRID-043",
        "latitude": 27.2329,
        "longitude": 88.4943,
        "elevation_m": 461.5,
        "slope_degrees": 20.3,
        "aspect_degrees": 338.0,
        "rainfall_24h_mm": 8.7,
        "rainfall_72h_mm": 31.5,
        "risk_probability": 0.612,
        "risk_level": "HIGH",
        "model_version": "HistGradientBoosting v1.0.0"
      }
    },
    {
      "type": "Feature",
      "id": "CELL-044",
      "geometry": {
        "type": "Polygon",
        "coordinates": [
          [
            [
              88.5034,
              27.2249
            ],
            [
              88.5194,
              27.2249
            ],
            [
              88.5194,
              27.2409
            ],
            [
              88.5034,
              27.2409
            ],
            [
              88.5034,
              27.2249
            ]
          ]
        ]
      },
      "properties": {
        "cell_id": "CORRIDOR-GRID-044",
        "latitude": 27.2329,
        "longitude": 88.5114,
        "elevation_m": 453.9,
        "slope_degrees": 32.0,
        "aspect_degrees": 334.2,
        "rainfall_24h_mm": 8.7,
        "rainfall_72h_mm": 26.6,
        "risk_probability": 0.857,
        "risk_level": "CRITICAL",
        "model_version": "HistGradientBoosting v1.0.0"
      }
    },
    {
      "type": "Feature",
      "id": "CELL-045",
      "geometry": {
        "type": "Polygon",
        "coordinates": [
          [
            [
              88.5206,
              27.2249
            ],
            [
              88.5366,
              27.2249
            ],
            [
              88.5366,
              27.2409
            ],
            [
              88.5206,
              27.2409
            ],
            [
              88.5206,
              27.2249
            ]
          ]
        ]
      },
      "properties": {
        "cell_id": "CORRIDOR-GRID-045",
        "latitude": 27.2329,
        "longitude": 88.5286,
        "elevation_m": 430.5,
        "slope_degrees": 23.9,
        "aspect_degrees": 322.6,
        "rainfall_24h_mm": 8.7,
        "rainfall_72h_mm": 24.2,
        "risk_probability": 0.685,
        "risk_level": "HIGH",
        "model_version": "HistGradientBoosting v1.0.0"
      }
    },
    {
      "type": "Feature",
      "id": "CELL-046",
      "geometry": {
        "type": "Polygon",
        "coordinates": [
          [
            [
              88.5377,
              27.2249
            ],
            [
              88.5537,
              27.2249
            ],
            [
              88.5537,
              27.2409
            ],
            [
              88.5377,
              27.2409
            ],
            [
              88.5377,
              27.2249
            ]
          ]
        ]
      },
      "properties": {
        "cell_id": "CORRIDOR-GRID-046",
        "latitude": 27.2329,
        "longitude": 88.5457,
        "elevation_m": 416.4,
        "slope_degrees": 8.3,
        "aspect_degrees": 315.5,
        "rainfall_24h_mm": 8.7,
        "rainfall_72h_mm": 25.9,
        "risk_probability": 0.256,
        "risk_level": "WATCH",
        "model_version": "HistGradientBoosting v1.0.0"
      }
    },
    {
      "type": "Feature",
      "id": "CELL-047",
      "geometry": {
        "type": "Polygon",
        "coordinates": [
          [
            [
              88.5549,
              27.2249
            ],
            [
              88.5709,
              27.2249
            ],
            [
              88.5709,
              27.2409
            ],
            [
              88.5549,
              27.2409
            ],
            [
              88.5549,
              27.2249
            ]
          ]
        ]
      },
      "properties": {
        "cell_id": "CORRIDOR-GRID-047",
        "latitude": 27.2329,
        "longitude": 88.5629,
        "elevation_m": 409.2,
        "slope_degrees": 8.6,
        "aspect_degrees": 312.0,
        "rainfall_24h_mm": 8.7,
        "rainfall_72h_mm": 30.6,
        "risk_probability": 0.277,
        "risk_level": "WATCH",
        "model_version": "HistGradientBoosting v1.0.0"
      }
    },
    {
      "type": "Feature",
      "id": "CELL-048",
      "geometry": {
        "type": "Polygon",
        "coordinates": [
          [
            [
              88.572,
              27.2249
            ],
            [
              88.588,
              27.2249
            ],
            [
              88.588,
              27.2409
            ],
            [
              88.572,
              27.2409
            ],
            [
              88.572,
              27.2249
            ]
          ]
        ]
      },
      "properties": {
        "cell_id": "CORRIDOR-GRID-048",
        "latitude": 27.2329,
        "longitude": 88.58,
        "elevation_m": 405.8,
        "slope_degrees": 23.4,
        "aspect_degrees": 310.3,
        "rainfall_24h_mm": 8.7,
        "rainfall_72h_mm": 35.0,
        "risk_probability": 0.707,
        "risk_level": "HIGH",
        "model_version": "HistGradientBoosting v1.0.0"
      }
    },
    {
      "type": "Feature",
      "id": "CELL-049",
      "geometry": {
        "type": "Polygon",
        "coordinates": [
          [
            [
              88.452,
              27.2434
            ],
            [
              88.468,
              27.2434
            ],
            [
              88.468,
              27.2594
            ],
            [
              88.452,
              27.2594
            ],
            [
              88.452,
              27.2434
            ]
          ]
        ]
      },
      "properties": {
        "cell_id": "CORRIDOR-GRID-049",
        "latitude": 27.2514,
        "longitude": 88.46,
        "elevation_m": 319.3,
        "slope_degrees": 14.8,
        "aspect_degrees": 324.5,
        "rainfall_24h_mm": 9.2,
        "rainfall_72h_mm": 35.8,
        "risk_probability": 0.47,
        "risk_level": "WATCH",
        "model_version": "HistGradientBoosting v1.0.0"
      }
    },
    {
      "type": "Feature",
      "id": "CELL-050",
      "geometry": {
        "type": "Polygon",
        "coordinates": [
          [
            [
              88.4691,
              27.2434
            ],
            [
              88.4851,
              27.2434
            ],
            [
              88.4851,
              27.2594
            ],
            [
              88.4691,
              27.2594
            ],
            [
              88.4691,
              27.2434
            ]
          ]
        ]
      },
      "properties": {
        "cell_id": "CORRIDOR-GRID-050",
        "latitude": 27.2514,
        "longitude": 88.4771,
        "elevation_m": 326.8,
        "slope_degrees": 7.7,
        "aspect_degrees": 328.3,
        "rainfall_24h_mm": 9.2,
        "rainfall_72h_mm": 35.5,
        "risk_probability": 0.274,
        "risk_level": "WATCH",
        "model_version": "HistGradientBoosting v1.0.0"
      }
    },
    {
      "type": "Feature",
      "id": "CELL-051",
      "geometry": {
        "type": "Polygon",
        "coordinates": [
          [
            [
              88.4863,
              27.2434
            ],
            [
              88.5023,
              27.2434
            ],
            [
              88.5023,
              27.2594
            ],
            [
              88.4863,
              27.2594
            ],
            [
              88.4863,
              27.2434
            ]
          ]
        ]
      },
      "properties": {
        "cell_id": "CORRIDOR-GRID-051",
        "latitude": 27.2514,
        "longitude": 88.4943,
        "elevation_m": 334.5,
        "slope_degrees": 19.6,
        "aspect_degrees": 332.1,
        "rainfall_24h_mm": 9.2,
        "rainfall_72h_mm": 31.5,
        "risk_probability": 0.597,
        "risk_level": "HIGH",
        "model_version": "HistGradientBoosting v1.0.0"
      }
    },
    {
      "type": "Feature",
      "id": "CELL-052",
      "geometry": {
        "type": "Polygon",
        "coordinates": [
          [
            [
              88.5034,
              27.2434
            ],
            [
              88.5194,
              27.2434
            ],
            [
              88.5194,
              27.2594
            ],
            [
              88.5034,
              27.2594
            ],
            [
              88.5034,
              27.2434
            ]
          ]
        ]
      },
      "properties": {
        "cell_id": "CORRIDOR-GRID-052",
        "latitude": 27.2514,
        "longitude": 88.5114,
        "elevation_m": 331.2,
        "slope_degrees": 31.5,
        "aspect_degrees": 330.5,
        "rainfall_24h_mm": 9.2,
        "rainfall_72h_mm": 26.6,
        "risk_probability": 0.852,
        "risk_level": "CRITICAL",
        "model_version": "HistGradientBoosting v1.0.0"
      }
    },
    {
      "type": "Feature",
      "id": "CELL-053",
      "geometry": {
        "type": "Polygon",
        "coordinates": [
          [
            [
              88.5206,
              27.2434
            ],
            [
              88.5366,
              27.2434
            ],
            [
              88.5366,
              27.2594
            ],
            [
              88.5206,
              27.2594
            ],
            [
              88.5206,
              27.2434
            ]
          ]
        ]
      },
      "properties": {
        "cell_id": "CORRIDOR-GRID-053",
        "latitude": 27.2514,
        "longitude": 88.5286,
        "elevation_m": 318.6,
        "slope_degrees": 24.1,
        "aspect_degrees": 324.2,
        "rainfall_24h_mm": 9.2,
        "rainfall_72h_mm": 24.2,
        "risk_probability": 0.695,
        "risk_level": "HIGH",
        "model_version": "HistGradientBoosting v1.0.0"
      }
    },
    {
      "type": "Feature",
      "id": "CELL-054",
      "geometry": {
        "type": "Polygon",
        "coordinates": [
          [
            [
              88.5377,
              27.2434
            ],
            [
              88.5537,
              27.2434
            ],
            [
              88.5537,
              27.2594
            ],
            [
              88.5377,
              27.2594
            ],
            [
              88.5377,
              27.2434
            ]
          ]
        ]
      },
      "properties": {
        "cell_id": "CORRIDOR-GRID-054",
        "latitude": 27.2514,
        "longitude": 88.5457,
        "elevation_m": 307.7,
        "slope_degrees": 8.7,
        "aspect_degrees": 318.8,
        "rainfall_24h_mm": 9.2,
        "rainfall_72h_mm": 25.9,
        "risk_probability": 0.269,
        "risk_level": "WATCH",
        "model_version": "HistGradientBoosting v1.0.0"
      }
    },
    {
      "type": "Feature",
      "id": "CELL-055",
      "geometry": {
        "type": "Polygon",
        "coordinates": [
          [
            [
              88.5549,
              27.2434
            ],
            [
              88.5709,
              27.2434
            ],
            [
              88.5709,
              27.2594
            ],
            [
              88.5549,
              27.2594
            ],
            [
              88.5549,
              27.2434
            ]
          ]
        ]
      },
      "properties": {
        "cell_id": "CORRIDOR-GRID-055",
        "latitude": 27.2514,
        "longitude": 88.5629,
        "elevation_m": 300.4,
        "slope_degrees": 9.0,
        "aspect_degrees": 315.1,
        "rainfall_24h_mm": 9.2,
        "rainfall_72h_mm": 30.6,
        "risk_probability": 0.29,
        "risk_level": "WATCH",
        "model_version": "HistGradientBoosting v1.0.0"
      }
    },
    {
      "type": "Feature",
      "id": "CELL-056",
      "geometry": {
        "type": "Polygon",
        "coordinates": [
          [
            [
              88.572,
              27.2434
            ],
            [
              88.588,
              27.2434
            ],
            [
              88.588,
              27.2594
            ],
            [
              88.572,
              27.2594
            ],
            [
              88.572,
              27.2434
            ]
          ]
        ]
      },
      "properties": {
        "cell_id": "CORRIDOR-GRID-056",
        "latitude": 27.2514,
        "longitude": 88.58,
        "elevation_m": 296.0,
        "slope_degrees": 23.8,
        "aspect_degrees": 312.9,
        "rainfall_24h_mm": 9.2,
        "rainfall_72h_mm": 35.0,
        "risk_probability": 0.721,
        "risk_level": "HIGH",
        "model_version": "HistGradientBoosting v1.0.0"
      }
    },
    {
      "type": "Feature",
      "id": "CELL-057",
      "geometry": {
        "type": "Polygon",
        "coordinates": [
          [
            [
              88.452,
              27.262
            ],
            [
              88.468,
              27.262
            ],
            [
              88.468,
              27.278
            ],
            [
              88.452,
              27.278
            ],
            [
              88.452,
              27.262
            ]
          ]
        ]
      },
      "properties": {
        "cell_id": "CORRIDOR-GRID-057",
        "latitude": 27.27,
        "longitude": 88.46,
        "elevation_m": 403.5,
        "slope_degrees": 14.7,
        "aspect_degrees": 323.5,
        "rainfall_24h_mm": 11.0,
        "rainfall_72h_mm": 35.8,
        "risk_probability": 0.485,
        "risk_level": "WATCH",
        "model_version": "HistGradientBoosting v1.0.0"
      }
    },
    {
      "type": "Feature",
      "id": "CELL-058",
      "geometry": {
        "type": "Polygon",
        "coordinates": [
          [
            [
              88.4691,
              27.262
            ],
            [
              88.4851,
              27.262
            ],
            [
              88.4851,
              27.278
            ],
            [
              88.4691,
              27.278
            ],
            [
              88.4691,
              27.262
            ]
          ]
        ]
      },
      "properties": {
        "cell_id": "CORRIDOR-GRID-058",
        "latitude": 27.27,
        "longitude": 88.4771,
        "elevation_m": 407.5,
        "slope_degrees": 7.4,
        "aspect_degrees": 325.5,
        "rainfall_24h_mm": 11.0,
        "rainfall_72h_mm": 35.5,
        "risk_probability": 0.281,
        "risk_level": "WATCH",
        "model_version": "HistGradientBoosting v1.0.0"
      }
    },
    {
      "type": "Feature",
      "id": "CELL-059",
      "geometry": {
        "type": "Polygon",
        "coordinates": [
          [
            [
              88.4863,
              27.262
            ],
            [
              88.5023,
              27.262
            ],
            [
              88.5023,
              27.278
            ],
            [
              88.4863,
              27.278
            ],
            [
              88.4863,
              27.262
            ]
          ]
        ]
      },
      "properties": {
        "cell_id": "CORRIDOR-GRID-059",
        "latitude": 27.27,
        "longitude": 88.4943,
        "elevation_m": 409.9,
        "slope_degrees": 18.9,
        "aspect_degrees": 326.6,
        "rainfall_24h_mm": 11.0,
        "rainfall_72h_mm": 31.5,
        "risk_probability": 0.594,
        "risk_level": "HIGH",
        "model_version": "HistGradientBoosting v1.0.0"
      }
    },
    {
      "type": "Feature",
      "id": "CELL-060",
      "geometry": {
        "type": "Polygon",
        "coordinates": [
          [
            [
              88.5034,
              27.262
            ],
            [
              88.5194,
              27.262
            ],
            [
              88.5194,
              27.278
            ],
            [
              88.5034,
              27.278
            ],
            [
              88.5034,
              27.262
            ]
          ]
        ]
      },
      "properties": {
        "cell_id": "CORRIDOR-GRID-060",
        "latitude": 27.27,
        "longitude": 88.5114,
        "elevation_m": 407.9,
        "slope_degrees": 30.9,
        "aspect_degrees": 325.7,
        "rainfall_24h_mm": 11.0,
        "rainfall_72h_mm": 26.6,
        "risk_probability": 0.852,
        "risk_level": "CRITICAL",
        "model_version": "HistGradientBoosting v1.0.0"
      }
    },
    {
      "type": "Feature",
      "id": "CELL-061",
      "geometry": {
        "type": "Polygon",
        "coordinates": [
          [
            [
              88.5206,
              27.262
            ],
            [
              88.5366,
              27.262
            ],
            [
              88.5366,
              27.278
            ],
            [
              88.5206,
              27.278
            ],
            [
              88.5206,
              27.262
            ]
          ]
        ]
      },
      "properties": {
        "cell_id": "CORRIDOR-GRID-061",
        "latitude": 27.27,
        "longitude": 88.5286,
        "elevation_m": 402.0,
        "slope_degrees": 23.9,
        "aspect_degrees": 322.7,
        "rainfall_24h_mm": 11.0,
        "rainfall_72h_mm": 24.2,
        "risk_probability": 0.705,
        "risk_level": "HIGH",
        "model_version": "HistGradientBoosting v1.0.0"
      }
    },
    {
      "type": "Feature",
      "id": "CELL-062",
      "geometry": {
        "type": "Polygon",
        "coordinates": [
          [
            [
              88.5377,
              27.262
            ],
            [
              88.5537,
              27.262
            ],
            [
              88.5537,
              27.278
            ],
            [
              88.5377,
              27.278
            ],
            [
              88.5377,
              27.262
            ]
          ]
        ]
      },
      "properties": {
        "cell_id": "CORRIDOR-GRID-062",
        "latitude": 27.27,
        "longitude": 88.5457,
        "elevation_m": 395.2,
        "slope_degrees": 8.8,
        "aspect_degrees": 319.4,
        "rainfall_24h_mm": 11.0,
        "rainfall_72h_mm": 25.9,
        "risk_probability": 0.286,
        "risk_level": "WATCH",
        "model_version": "HistGradientBoosting v1.0.0"
      }
    },
    {
      "type": "Feature",
      "id": "CELL-063",
      "geometry": {
        "type": "Polygon",
        "coordinates": [
          [
            [
              88.5549,
              27.262
            ],
            [
              88.5709,
              27.262
            ],
            [
              88.5709,
              27.278
            ],
            [
              88.5549,
              27.278
            ],
            [
              88.5549,
              27.262
            ]
          ]
        ]
      },
      "properties": {
        "cell_id": "CORRIDOR-GRID-063",
        "latitude": 27.27,
        "longitude": 88.5629,
        "elevation_m": 389.6,
        "slope_degrees": 9.2,
        "aspect_degrees": 316.6,
        "rainfall_24h_mm": 11.0,
        "rainfall_72h_mm": 30.6,
        "risk_probability": 0.311,
        "risk_level": "WATCH",
        "model_version": "HistGradientBoosting v1.0.0"
      }
    },
    {
      "type": "Feature",
      "id": "CELL-064",
      "geometry": {
        "type": "Polygon",
        "coordinates": [
          [
            [
              88.572,
              27.262
            ],
            [
              88.588,
              27.262
            ],
            [
              88.588,
              27.278
            ],
            [
              88.572,
              27.278
            ],
            [
              88.572,
              27.262
            ]
          ]
        ]
      },
      "properties": {
        "cell_id": "CORRIDOR-GRID-064",
        "latitude": 27.27,
        "longitude": 88.58,
        "elevation_m": 385.5,
        "slope_degrees": 24.0,
        "aspect_degrees": 314.5,
        "rainfall_24h_mm": 11.0,
        "rainfall_72h_mm": 35.0,
        "risk_probability": 0.74,
        "risk_level": "HIGH",
        "model_version": "HistGradientBoosting v1.0.0"
      }
    }
  ]
}